0 METEOR 2-5 DEB
1 38278U 79095BY  13283.06915769  .00001743  00000-0  98625-3 0  1202
2 38278 081.2055 054.4519 0010392 248.1508 111.8630 14.09731997103376
0 METEOR 2-5 DEB
1 38278U 79095BY  13287.04372539  .00002249  00000-0  12740-2 0  1223
2 38278 081.2032 050.5666 0011107 247.9026 112.1184 14.09752704103937
0 METEOR 2-5 DEB
1 38278U 79095BY  13288.67611814  .00002300  00000-0  13026-2 0  1232
2 38278 081.2028 048.9713 0011057 245.9428 114.0604 14.09760591104161
0 METEOR 2-5 DEB
1 38278U 79095BY  13290.02461000  .00002575  00000-0  14593-2 0  1249
2 38278 081.2013 047.6545 0010411 241.0073 119.0108 14.09769434104350
0 METEOR 2-5 DEB
1 38278U 79095BY  13293.00546195  .00002962  00000-0  16789-2 0  1259
2 38278 081.1988 044.7436 0009304 237.0335 123.0024 14.09788855104778
0 METEOR 2-5 DEB
1 38278U 79095BY  13295.63141552  .00002929  00000-0  16602-2 0  1266
2 38278 081.1993 042.1763 0009114 227.5643 132.4676 14.09803894105144
